ARIANE 40 R/B           
1 20443U 90005H   26059.43220906  .00000286  00000+0  10466-3 0  9990
2 20443  98.3104 120.3686 0009273 227.4521 132.5886 14.39863299891476
DELTA 2 R/B(1)          
1 20453U 90008B   26059.51633014  .00065372  00000+0  80299-3 0  9999
2 20453  35.6028 234.9959 0087336 173.5638 186.6237 15.54550889924706
COSMOS 2058             
1 20465U 90010A   26059.44478181  .00004248  00000+0  25097-3 0  9999
2 20465  82.4664  56.5360 0010014  14.1913 345.9596 15.11222354940841
SL-14 R/B               
1 20466U 90010B   26059.10945849  .00000420  00000+0  47962-4 0  9997
2 20466  82.4994 276.3899 0019169 335.6765  24.3543 14.83559342927060
SL-14 R/B               
1 20511U 90018B   26059.45563323  .00000567  00000+0  68162-4 0  9994
2 20511  82.5188 231.7216 0017527 120.0277 240.2678 14.82132754921217
HST                     
1 20580U 90037B   26059.48101010  .00007656  00000+0  25376-3 0  9990
2 20580  28.4698 102.8114 0001520  31.9761 328.0927 15.29312143771902
SL-16 R/B               
1 20625U 90046B   26059.43657369 -.00000114  00000+0 -34292-4 0  9990
2 20625  71.0009 317.3476 0016009 312.1421  47.8340 14.15015246847087
COSMOS 2084             
1 20663U 90055A   26059.29089339  .00003162  00000+0  23148-3 0  9993
2 20663  62.7915   7.6307 0018472 187.8103 172.2713 15.05580737934901
SL-6 R/B(2)             
1 20666U 90055D   26059.32723455  .00002075  00000+0  16506-3 0  9996
2 20666  62.7824 285.6895 0023299 344.6642  15.3748 15.03542582936784
SL-8 R/B                
1 20775U 90078B   26059.50305632  .00015577  00000+0  45725-3 0  9991
2 20775  82.8998 259.5723 0364413  44.8325 318.1724 14.88707789807939
SL-8 R/B                
1 21088U 91006B   26059.47387403  .00000039  00000+0  23640-4 0  9993
2 21088  82.9462 176.8965 0023542  63.1613   6.6802 13.77493077762803
OKEAN-3                 
1 21397U 91039A   26059.30289229  .00003385  00000+0  23794-3 0  9997
2 21397  82.5200 345.9347 0014554  10.7914 349.3621 15.04726000863625
COSMOS 2151             
1 21422U 91042A   26059.47809627  .00001714  00000+0  13528-3 0  9996
2 21422  82.4934  92.5641 0014147  91.1314 269.1531 15.00062591861816
SL-14 R/B               
1 21423U 91042B   26059.50667456  .00000520  00000+0  62896-4 0  9990
2 21423  82.4908 228.7943 0015566 271.5477  88.3954 14.81818282851718
ERS-1                   
1 21574U 91050A   26059.45234153  .00000357  00000+0  12878-3 0  9996
2 21574  98.7888  77.4547 0031154 228.3161 131.5359 14.39440883814408
ARIANE 40 R/B           
1 21610U 91050F   26059.38657489  .00000320  00000+0  10840-3 0  9997
2 21610  98.2033 111.9714 0004384 101.3229 258.8454 14.42885621817652
INTERCOSMOS 25          
1 21819U 91086A   26059.41137432  .00001631  00000+0  31341-3 0  9997
2 21819  82.6068 315.6154 1487088 136.9210 235.8461 12.11969368495560
SL-8 R/B                
1 21876U 92008B   26059.36399523  .00000009  00000+0 -68702-5 0  9992
2 21876  82.9229 274.7172 0035090 158.7684  14.6534 13.75969872708133
SL-8 R/B                
1 21938U 92020B   26059.51677866  .00000068  00000+0  54910-4 0  9990
2 21938  82.9343 160.5701 0028058 325.4071  44.7551 13.75548235699877
USA 81                  
1 21949U 92023A   26059.50743285  .00000185  00000+0  61238-4 0  9994
2 21949  85.0102 136.7374 0002710  85.3581 274.7921 14.32364349 93478
COSMOS 2219             
1 22219U 92076A   26059.39578052  .00000360  00000+0  21374-3 0  9999
2 22219  71.0608  37.4955 0019447 219.4455 140.5252 14.14086686717062
SL-16 R/B               
1 22220U 92076B   26059.51888064  .00000229  00000+0  13801-3 0  9992
2 22220  70.9993 207.6901 0010772 113.1916 309.3087 14.16858720720530
COSMOS 2221             
1 22236U 92080A   26059.34122050  .00001851  00000+0  16193-3 0  9990
2 22236  82.5023 288.0368 0013223 220.1915 139.8330 14.96159019779390
SL-16 R/B               
1 22285U 92093B   26059.34037759 -.00000022  00000+0  13123-4 0  9990
2 22285  71.0233  23.8910 0006150 303.7670  56.2866 14.15449728711836
COSMOS 2228             
1 22286U 92094A   26059.49741487  .00002109  00000+0  17996-3 0  9996
2 22286  82.5144 246.1136 0017398 337.3079  22.7372 14.97135925774680
SL-16 R/B               
1 22566U 93016B   26059.45054690  .00000318  00000+0  18783-3 0  9996
2 22566  71.0051 234.5866 0011156 327.1613  32.8815 14.15302859700864
COSMOS 2242             
1 22626U 93024A   26059.34195120  .00002003  00000+0  17365-3 0  9992
2 22626  82.5161 275.6595 0015902 342.1608  17.9053 14.96504577778996
SL-16 R/B               
1 22803U 93059B   26059.30134635  .00000224  00000+0  13439-3 0  9998
2 22803  70.9911  30.9233 0018907 229.5916 130.3559 14.17230966678201
ARIANE 40 R/B           
1 22830U 93061H   26059.48093330  .00000218  00000+0  95670-4 0  9997
2 22830  98.4937 128.5496 0009728 315.5497  44.4906 14.32855270692788
COSMOS 2278             
1 23087U 94023A   26059.47435426  .00000372  00000+0  21899-3 0  9998
2 23087  71.0535 194.3753 0007529  32.0320 328.1259 14.14373010643500
SL-16 R/B               
1 23088U 94023B   26059.45428164 -.00000007  00000+0  21018-4 0  9998
2 23088  70.9987  90.2841 0005471 294.5045  65.5507 14.15013387644783
SL-16 R/B               
1 23343U 94074B   26059.31483501  .00000540  00000+0  78988-4 0  9998
2 23343  97.7122  90.5118 0005210 246.9235 123.6481 14.79395174685866
SL-16 R/B               
1 23405U 94077B   26059.29816090 -.00000211  00000+0 -83472-4 0  9991
2 23405  70.9849  12.2450 0003583 224.0195 136.0642 14.15563363614908
ARIANE 40+ R/B          
1 23561U 95021B   26059.42520995  .00000315  00000+0  11433-3 0  9995
2 23561  98.4517 131.0325 0007242 161.0820 209.9415 14.39764615617911
SL-16 R/B               
1 23705U 95058B   26059.44602462 -.00000181  00000+0 -68453-4 0  9995
2 23705  71.0207 199.6600 0011086 142.1672 218.0233 14.15492976566549
SL-16 R/B               
1 24298U 96051B   26059.46348321  .00000076  00000+0  67598-4 0  9990
2 24298  70.7591 194.7656 0015912 161.4938 198.6764 14.12412904520347
ORBVIEW 2 (SEASTAR)     
1 24883U 97037A   26059.42630037  .00000329  00000+0  13059-3 0  9992
2 24883  98.8551 223.4935 0003214  90.6647 269.4906 14.35486363507149
SL-16 R/B               
1 25400U 98043G   26059.47003045  .00000065  00000+0  46232-4 0  9991
2 25400  98.8238  12.7691 0010642  45.6440 314.5610 14.26047329437678
SL-16 R/B               
1 25407U 98045B   26059.46150630 -.00000241  00000+0 -97647-4 0  9996
2 25407  71.0109 200.9788 0006223  22.5069 337.6326 14.16190378425796
ISS (ZARYA)             
1 25544U 98067A   26059.41345909  .00009270  00000+0  18003-3 0  9999
2 25544  51.6325 118.2146 0008299 142.1568 218.0005 15.48358440554891
CZ-4B R/B               
1 25732U 99025C   26059.41385531  .00000056  00000+0  47846-4 0  9999
2 25732  98.6647 103.9144 0037264  13.3837 358.0398 14.18263232386858
OKEAN-O                 
1 25860U 99039A   26059.39162699  .00000756  00000+0  10601-3 0  9996
2 25860  97.9464 119.3768 0001547  72.9892 287.1489 14.80318260433014
SL-16 R/B               
1 25861U 99039B   26059.44778929  .00000625  00000+0  86054-4 0  9993
2 25861  97.9987 118.5574 0013445 289.2462  70.7296 14.81716475435494
DELTA 2 R/B             
1 25876U 99041E   26059.45105361  .00001871  00000+0  33858-3 0  9994
2 25876  51.7654 338.1782 0502336 321.1560  35.4246 14.11802025361724
HELIOS 1B               
1 25977U 99064A   26059.43198819  .00001872  00000+0  21216-3 0  9995
2 25977  98.1706 321.4029 0002502  87.6502 272.5000 14.87652515683884
TERRA                   
1 25994U 99068A   26059.47941594  .00000488  00000+0  10861-3 0  9994
2 25994  97.9614 113.2651 0002074 174.4523 298.6620 14.61003243393737
SL-16 R/B               
1 26070U 00006B   26059.47453891  .00000300  00000+0  17671-3 0  9991
2 26070  71.0015 117.2150 0017374 202.7963 157.2390 14.15822494347257
TITAN 4B R/B            
1 26474U 00047B   26059.42010556  .00004178  00000+0  26433-3 0  9999
2 26474  67.9882  66.5748 0037828  46.5096 313.9187 15.09457660391513
ENVISAT                 
1 27386U 02009A   26059.51359042  .00000134  00000+0  57248-4 0  9995
2 27386  98.3711  13.3302 0001372  85.0197  28.7770 14.39032898257857
IDEFIX & ARIANE 42P R/B 
1 27422U 02021B   26059.40624358  .00000291  00000+0  12710-3 0  9991
2 27422  98.5860 358.1240 0011058 210.5667 149.4873 14.31018364242690
AQUA                    
1 27424U 02022A   26059.52415955  .00001155  00000+0  24047-3 0  9994
2 27424  98.4157  26.7234 0000765  51.9428  65.8391 14.61950264267393
CZ-4B R/B               
1 27432U 02024C   26059.37251484  .00000047  00000+0  46995-4 0  9999
2 27432  98.8861 112.8253 0050889  50.3983 321.6061 14.14545801227924
MIDORI II (ADEOS-II)    
1 27597U 02056A   26059.49304787  .00000308  00000+0  13878-3 0  9997
2 27597  98.7751  17.9082 0001903  56.1568 303.9795 14.29276689208987
H-2A R/B                
1 27601U 02056E   26059.50526806  .00000290  00000+0  11621-3 0  9997
2 27601  98.3184  20.2214 0069921 188.0181 283.8366 14.33753532212799
CZ-4B R/B               
1 28059U 03049C   26059.44367611  .00000465  00000+0  11843-3 0  9998
2 28059  98.6869  53.9864 0047003 259.7498  99.8396 14.55009301185258
CZ-2C R/B               
1 28222U 04012C   26059.13914051  .00054305  00000+0  58875-3 0  9991
2 28222  97.7260 123.5351 0013627 348.4673  11.6270 15.63261075202785
SL-16 R/B               
1 28353U 04021B   26058.98154134  .00000000  00000+0  24562-4 0  9996
2 28353  70.9990 252.8671 0003534  30.7115 329.4214 14.14599717121467
CZ-4B R/B               
1 28415U 04035C   26059.35416433  .00008496  00000+0  30094-3 0  9998
2 28415  97.3519  93.7097 0032171   5.2563 354.9008 15.28864029178488
CZ-2C R/B               
1 28480U 04046B   26059.29997897  .00000128  00000+0  62713-4 0  9991
2 28480  98.1988 334.8678 0139309 182.1429 177.9173 14.26988578107166
